{
  "norad_id": 62838,
  "name": "STARLINK-11556 [DTC]",
  "history": [
    {
      "epoch": "2026-03-28T15:23:39.198624Z",
      "apogee_km": 357.8144669549374,
      "perigee_km": 354.836891625916,
      "latitude_deg": -8.019518417779061e-06,
      "longitude_deg": 134.56800979739768,
      "height_km": 355.8762286668598,
      "semi_major_axis_km": 6734.462679290426,
      "eccentricity": 0.00022107,
      "inclination_deg": 43.0016,
      "raan_deg": 191.5403,
      "arg_perigee_deg": 278.6036,
      "mean_anomaly_deg": 81.4581,
      "mean_motion_rev_day": 15.70899264
    },
    {
      "epoch": "2026-03-29T23:26:25.766304Z",
      "apogee_km": 357.42757201485074,
      "perigee_km": 354.5184364930137,
      "latitude_deg": 1.2746667629436748e-05,
      "longitude_deg": 4.510506802466022,
      "height_km": 355.1117432018473,
      "semi_major_axis_km": 6734.110004253932,
      "eccentricity": 0.000216,
      "inclination_deg": 43.0013,
      "raan_deg": 183.4929,
      "arg_perigee_deg": 295.8564,
      "mean_anomaly_deg": 64.2081,
      "mean_motion_rev_day": 15.71022671
    },
    {
      "epoch": "2026-03-30T05:32:39.533568Z",
      "apogee_km": 356.9439930797407,
      "perigee_km": 355.5265424048266,
      "latitude_deg": -4.168261525519526e-05,
      "longitude_deg": -88.83068971253277,
      "height_km": 355.8922337976627,
      "semi_major_axis_km": 6734.372267742284,
      "eccentricity": 0.00010524,
      "inclination_deg": 43.0001,
      "raan_deg": 181.9598,
      "arg_perigee_deg": 279.3543,
      "mean_anomaly_deg": 80.7205,
      "mean_motion_rev_day": 15.70930899
    }
  ]
}